PROBA-1                 
1 26958U 01049B   26095.84574381  .00002480  00000+0  16366-3 0  9994
2 26958  97.9624 101.8596 0055586   9.1555 351.0672 15.07208142332724
CUTE-1 (CO-55)          
1 27844U 03031E   26095.75087330  .00000475  00000+0  22481-3 0  9992
2 27844  98.6770 105.2145 0010312  41.7667 318.4298 14.24290236181367
CUBESAT XI-IV (CO-57)   
1 27848U 03031J   26095.00030604  .00000375  00000+0  18383-3 0  9991
2 27848  98.6802 104.2449 0010479  60.3929 299.8292 14.23580899180962
APRIZESAT 4             
1 35684U 09041D   26095.76512824  .00001351  00000+0  16764-3 0  9993
2 35684  98.1445 169.6399 0043055 194.8210 165.1744 14.83768636900621
APRIZESAT 3             
1 35686U 09041F   26095.86763071  .00001951  00000+0  17354-3 0  9990
2 35686  98.1952 245.6788 0061093 306.4209  53.1387 14.96003038905563
PROBA-2                 
1 36037U 09059B   26095.75013821  .00000348  00000+0  91661-4 0  9992
2 36037  98.2445 280.1074 0013992 140.5302 219.6917 14.54810632870996
APRIZESAT 5             
1 37792U 11044E   26095.78257616  .00001587  00000+0  20824-3 0  9991
2 37792  98.2422  26.7955 0051171 235.1585 124.4809 14.80938684788074
APRIZESAT 6             
1 37793U 11044F   26095.71875764  .00001374  00000+0  20094-3 0  9998
2 37793  98.2398   4.7304 0042348 319.3082  94.4923 14.76816896786452
PROBA-V                 
1 39159U 13021A   26095.86603212  .00000109  00000+0  66079-4 0  9995
2 39159  98.3543  78.0625 0004078   1.7058 358.4135 14.23581380670826
APRIZESAT 7             
1 39416U 13066A   26095.83199778  .00002341  00000+0  23708-3 0  9995
2 39416  97.7646  50.1310 0037576  91.1285 269.4239 14.91383843670448
APRIZESAT 8             
1 39425U 13066K   26095.83177840  .00001519  00000+0  17042-3 0  9991
2 39425  97.8160  44.3467 0046435 162.2583 198.0267 14.87500262668911
BUGSAT-1 (TITA)         
1 40014U 14033E   26095.85593135  .00007591  00000+0  40738-3 0  9997
2 40014  98.0406 184.2274 0029534  69.1577 291.2812 15.14883470644880
SAUDISAT 4              
1 40016U 14033G   26095.68461668  .00001084  00000+0  14984-3 0  9990
2 40016  97.7469 244.3728 0043737 310.5281  49.2125 14.79440534635355
APRIZESAT 9             
1 40018U 14033J   26095.64852881  .00001133  00000+0  17330-3 0  9992
2 40018  97.8937 230.6700 0067550  73.9391 286.9243 14.74132987632877
APRIZESAT 10            
1 40019U 14033K   26095.81211654  .00001229  00000+0  19971-3 0  9998
2 40019  97.9529 224.4369 0079749 144.1696 216.4897 14.70809545631611
TECHDEMOSAT-1 (TDS-1)   
1 40076U 14037H   26095.85958589  .00010126  00000+0  59064-3 0  9997
2 40076  98.3804  80.9847 0007473 141.2000 218.9765 15.12168741637297
TECHNOSAT               
1 42829U 17042E   26095.49931249  .00004649  00000+0  33498-3 0  9994
2 42829  97.4207 255.9810 0017148 348.4283  11.6547 15.04524029475775
