[{"OBJECT_NAME":"PROBA-1","OBJECT_ID":"2001-049B","EPOCH":"2026-04-05T20:17:52.265184","MEAN_MOTION":15.07208142,"ECCENTRICITY":0.0055586,"INCLINATION":97.9624,"RA_OF_ASC_NODE":101.8596,"ARG_OF_PERICENTER":9.1555,"MEAN_ANOMALY":351.0672,"EPHEMERIS_TYPE":0,"CLASSIFICATION_TYPE":"U","NORAD_CAT_ID":26958,"ELEMENT_SET_NO":999,"REV_AT_EPOCH":33272,"BSTAR":0.00016366,"MEAN_MOTION_DOT":2.48e-5,"MEAN_MOTION_DDOT":0},{"OBJECT_NAME":"CUTE-1 (CO-55)","OBJECT_ID":"2003-031E","EPOCH":"2026-04-05T18:01:15.453120","MEAN_MOTION":14.24290236,"ECCENTRICITY":0.0010312,"INCLINATION":98.677,"RA_OF_ASC_NODE":105.2145,"ARG_OF_PERICENTER":41.7667,"MEAN_ANOMALY":318.4298,"EPHEMERIS_TYPE":0,"CLASSIFICATION_TYPE":"U","NORAD_CAT_ID":27844,"ELEMENT_SET_NO":999,"REV_AT_EPOCH":18136,"BSTAR":0.00022481,"MEAN_MOTION_DOT":4.75e-6,"MEAN_MOTION_DDOT":0},{"OBJECT_NAME":"CUBESAT XI-IV (CO-57)","OBJECT_ID":"2003-031J","EPOCH":"2026-04-05T00:00:26.441856","MEAN_MOTION":14.23580899,"ECCENTRICITY":0.00104798,"INCLINATION":98.6802,"RA_OF_ASC_NODE":104.2449,"ARG_OF_PERICENTER":60.3929,"MEAN_ANOMALY":299.8292,"EPHEMERIS_TYPE":0,"CLASSIFICATION_TYPE":"U","NORAD_CAT_ID":27848,"ELEMENT_SET_NO":999,"REV_AT_EPOCH":18096,"BSTAR":0.00018383126,"MEAN_MOTION_DOT":3.75e-6,"MEAN_MOTION_DDOT":0},{"OBJECT_NAME":"APRIZESAT 4","OBJECT_ID":"2009-041D","EPOCH":"2026-04-05T18:21:47.079936","MEAN_MOTION":14.83768636,"ECCENTRICITY":0.0043055,"INCLINATION":98.1445,"RA_OF_ASC_NODE":169.6399,"ARG_OF_PERICENTER":194.821,"MEAN_ANOMALY":165.1744,"EPHEMERIS_TYPE":0,"CLASSIFICATION_TYPE":"U","NORAD_CAT_ID":35684,"ELEMENT_SET_NO":999,"REV_AT_EPOCH":90062,"BSTAR":0.00016764,"MEAN_MOTION_DOT":1.351e-5,"MEAN_MOTION_DDOT":0},{"OBJECT_NAME":"APRIZESAT 3","OBJECT_ID":"2009-041F","EPOCH":"2026-04-05T20:49:23.293344","MEAN_MOTION":14.96003038,"ECCENTRICITY":0.0061093,"INCLINATION":98.1952,"RA_OF_ASC_NODE":245.6788,"ARG_OF_PERICENTER":306.4209,"MEAN_ANOMALY":53.1387,"EPHEMERIS_TYPE":0,"CLASSIFICATION_TYPE":"U","NORAD_CAT_ID":35686,"ELEMENT_SET_NO":999,"REV_AT_EPOCH":90556,"BSTAR":0.00017354,"MEAN_MOTION_DOT":1.951e-5,"MEAN_MOTION_DDOT":0},{"OBJECT_NAME":"PROBA-2","OBJECT_ID":"2009-059B","EPOCH":"2026-04-05T18:00:11.941344","MEAN_MOTION":14.54810632,"ECCENTRICITY":0.0013992,"INCLINATION":98.2445,"RA_OF_ASC_NODE":280.1074,"ARG_OF_PERICENTER":140.5302,"MEAN_ANOMALY":219.6917,"EPHEMERIS_TYPE":0,"CLASSIFICATION_TYPE":"U","NORAD_CAT_ID":36037,"ELEMENT_SET_NO":999,"REV_AT_EPOCH":87099,"BSTAR":9.1661e-5,"MEAN_MOTION_DOT":3.48e-6,"MEAN_MOTION_DDOT":0},{"OBJECT_NAME":"APRIZESAT 5","OBJECT_ID":"2011-044E","EPOCH":"2026-04-05T18:46:54.580224","MEAN_MOTION":14.80938684,"ECCENTRICITY":0.0051171,"INCLINATION":98.2422,"RA_OF_ASC_NODE":26.7955,"ARG_OF_PERICENTER":235.1585,"MEAN_ANOMALY":124.4809,"EPHEMERIS_TYPE":0,"CLASSIFICATION_TYPE":"U","NORAD_CAT_ID":37792,"ELEMENT_SET_NO":999,"REV_AT_EPOCH":78807,"BSTAR":0.00020824,"MEAN_MOTION_DOT":1.587e-5,"MEAN_MOTION_DDOT":0},{"OBJECT_NAME":"APRIZESAT 6","OBJECT_ID":"2011-044F","EPOCH":"2026-04-05T17:15:00.660096","MEAN_MOTION":14.76816896,"ECCENTRICITY":0.0042348,"INCLINATION":98.2398,"RA_OF_ASC_NODE":4.7304,"ARG_OF_PERICENTER":319.3082,"MEAN_ANOMALY":94.4923,"EPHEMERIS_TYPE":0,"CLASSIFICATION_TYPE":"U","NORAD_CAT_ID":37793,"ELEMENT_SET_NO":999,"REV_AT_EPOCH":78645,"BSTAR":0.00020094,"MEAN_MOTION_DOT":1.374e-5,"MEAN_MOTION_DDOT":0},{"OBJECT_NAME":"PROBA-V","OBJECT_ID":"2013-021A","EPOCH":"2026-04-05T20:47:05.175168","MEAN_MOTION":14.2358138,"ECCENTRICITY":0.0004078,"INCLINATION":98.3543,"RA_OF_ASC_NODE":78.0625,"ARG_OF_PERICENTER":1.7058,"MEAN_ANOMALY":358.4135,"EPHEMERIS_TYPE":0,"CLASSIFICATION_TYPE":"U","NORAD_CAT_ID":39159,"ELEMENT_SET_NO":999,"REV_AT_EPOCH":67082,"BSTAR":6.6079e-5,"MEAN_MOTION_DOT":1.09e-6,"MEAN_MOTION_DDOT":0},{"OBJECT_NAME":"APRIZESAT 7","OBJECT_ID":"2013-066A","EPOCH":"2026-04-05T19:58:04.608192","MEAN_MOTION":14.91383843,"ECCENTRICITY":0.0037576,"INCLINATION":97.7646,"RA_OF_ASC_NODE":50.131,"ARG_OF_PERICENTER":91.1285,"MEAN_ANOMALY":269.4239,"EPHEMERIS_TYPE":0,"CLASSIFICATION_TYPE":"U","NORAD_CAT_ID":39416,"ELEMENT_SET_NO":999,"REV_AT_EPOCH":67044,"BSTAR":0.00023708,"MEAN_MOTION_DOT":2.341e-5,"MEAN_MOTION_DDOT":0},{"OBJECT_NAME":"APRIZESAT 8","OBJECT_ID":"2013-066K","EPOCH":"2026-04-05T19:57:45.653760","MEAN_MOTION":14.87500262,"ECCENTRICITY":0.0046435,"INCLINATION":97.816,"RA_OF_ASC_NODE":44.3467,"ARG_OF_PERICENTER":162.2583,"MEAN_ANOMALY":198.0267,"EPHEMERIS_TYPE":0,"CLASSIFICATION_TYPE":"U","NORAD_CAT_ID":39425,"ELEMENT_SET_NO":999,"REV_AT_EPOCH":66891,"BSTAR":0.00017042,"MEAN_MOTION_DOT":1.519e-5,"MEAN_MOTION_DDOT":0},{"OBJECT_NAME":"BUGSAT-1 (TITA)","OBJECT_ID":"2014-033E","EPOCH":"2026-04-05T20:32:32.468640","MEAN_MOTION":15.1488347,"ECCENTRICITY":0.0029534,"INCLINATION":98.0406,"RA_OF_ASC_NODE":184.2274,"ARG_OF_PERICENTER":69.1577,"MEAN_ANOMALY":291.2812,"EPHEMERIS_TYPE":0,"CLASSIFICATION_TYPE":"U","NORAD_CAT_ID":40014,"ELEMENT_SET_NO":999,"REV_AT_EPOCH":64488,"BSTAR":0.00040738,"MEAN_MOTION_DOT":7.591e-5,"MEAN_MOTION_DDOT":0},{"OBJECT_NAME":"SAUDISAT 4","OBJECT_ID":"2014-033G","EPOCH":"2026-04-05T16:25:50.881152","MEAN_MOTION":14.79440534,"ECCENTRICITY":0.0043737,"INCLINATION":97.7469,"RA_OF_ASC_NODE":244.3728,"ARG_OF_PERICENTER":310.5281,"MEAN_ANOMALY":49.2125,"EPHEMERIS_TYPE":0,"CLASSIFICATION_TYPE":"U","NORAD_CAT_ID":40016,"ELEMENT_SET_NO":999,"REV_AT_EPOCH":63535,"BSTAR":0.00014984,"MEAN_MOTION_DOT":1.084e-5,"MEAN_MOTION_DDOT":0},{"OBJECT_NAME":"APRIZESAT 9","OBJECT_ID":"2014-033J","EPOCH":"2026-04-05T15:33:52.889184","MEAN_MOTION":14.74132987,"ECCENTRICITY":0.006755,"INCLINATION":97.8937,"RA_OF_ASC_NODE":230.67,"ARG_OF_PERICENTER":73.9391,"MEAN_ANOMALY":286.9243,"EPHEMERIS_TYPE":0,"CLASSIFICATION_TYPE":"U","NORAD_CAT_ID":40018,"ELEMENT_SET_NO":999,"REV_AT_EPOCH":63287,"BSTAR":0.0001733,"MEAN_MOTION_DOT":1.133e-5,"MEAN_MOTION_DDOT":0},{"OBJECT_NAME":"APRIZESAT 10","OBJECT_ID":"2014-033K","EPOCH":"2026-04-05T19:29:26.869056","MEAN_MOTION":14.70809545,"ECCENTRICITY":0.0079749,"INCLINATION":97.9529,"RA_OF_ASC_NODE":224.4369,"ARG_OF_PERICENTER":144.1696,"MEAN_ANOMALY":216.4897,"EPHEMERIS_TYPE":0,"CLASSIFICATION_TYPE":"U","NORAD_CAT_ID":40019,"ELEMENT_SET_NO":999,"REV_AT_EPOCH":63161,"BSTAR":0.00019971,"MEAN_MOTION_DOT":1.229e-5,"MEAN_MOTION_DDOT":0},{"OBJECT_NAME":"TECHDEMOSAT-1 (TDS-1)","OBJECT_ID":"2014-037H","EPOCH":"2026-04-05T20:37:48.220896","MEAN_MOTION":15.12168741,"ECCENTRICITY":0.0007473,"INCLINATION":98.3804,"RA_OF_ASC_NODE":80.9847,"ARG_OF_PERICENTER":141.2,"MEAN_ANOMALY":218.9765,"EPHEMERIS_TYPE":0,"CLASSIFICATION_TYPE":"U","NORAD_CAT_ID":40076,"ELEMENT_SET_NO":999,"REV_AT_EPOCH":63729,"BSTAR":0.00059064,"MEAN_MOTION_DOT":0.00010126,"MEAN_MOTION_DDOT":0},{"OBJECT_NAME":"TECHNOSAT","OBJECT_ID":"2017-042E","EPOCH":"2026-04-05T11:59:00.599136","MEAN_MOTION":15.04524029,"ECCENTRICITY":0.00171481,"INCLINATION":97.4207,"RA_OF_ASC_NODE":255.981,"ARG_OF_PERICENTER":348.4283,"MEAN_ANOMALY":11.6547,"EPHEMERIS_TYPE":0,"CLASSIFICATION_TYPE":"U","NORAD_CAT_ID":42829,"ELEMENT_SET_NO":999,"REV_AT_EPOCH":47577,"BSTAR":0.00033498158,"MEAN_MOTION_DOT":4.649e-5,"MEAN_MOTION_DDOT":0}]
